0 COSMOS 1249 COOLANT
1 26512U 81021P   13284.19415212  .00000077  00000-0  13172-3 0  5640
2 26512 064.9646 212.7277 0063827 303.5049 056.0093 13.90746294690318
0 COSMOS 1249 COOLANT
1 26512U 81021P   13286.20758631  .00000079  00000-0  13355-3 0  5655
2 26512 064.9654 207.4539 0062148 302.3453 057.1616 13.90747057690591
0 COSMOS 1249 COOLANT
1 26512U 81021P   13289.15583322  .00000085  00000-0  13851-3 0  5664
2 26512 064.9629 199.7140 0062435 301.8656 057.6349 13.90748129691008
0 COSMOS 1249 COOLANT
1 26512U 81021P   13291.09736030  .00000088  00000-0  14044-3 0  5675
2 26512 064.9543 194.5896 0065250 303.3026 056.1667 13.90748497691274
0 COSMOS 1249 COOLANT
1 26512U 81021P   13292.17598861  .00000091  00000-0  14280-3 0  5680
2 26512 064.9564 191.7695 0063684 302.2253 057.2731 13.90749064691424
0 COSMOS 1249 COOLANT
1 26512U 81021P   13293.32652065  .00000092  00000-0  14351-3 0  5696
2 26512 064.9630 188.7784 0061175 300.2983 059.2133 13.90749800691587
0 COSMOS 1249 COOLANT
1 26512U 81021P   13296.13094290  .00000098  00000-0  14843-3 0  5702
2 26512 064.9624 181.4188 0061967 299.9726 059.5176 13.90751026691972
